start=new Date('2022-12-16T00:00:00.000Z').valueOf();
sats=[{"INCLINATION":"53.0569","PERIAPSIS":"545.977","MEAN_ELEMENT_THEORY":"SGP4","SITE":"AFETR","MEAN_MOTION_DDOT":"0.0000000000000","RA_OF_ASC_NODE":"345.7301","PERIOD":"95.592","TIME_SYSTEM":"UTC","MEAN_ANOMALY":"301.5124","CLASSIFICATION_TYPE":"U","TLE_LINE1":"1 45553U 20025Y   22349.26998646  .00001505  00000-0  11989-3 0  9993","ECCENTRICITY":"0.00017920","LAUNCH_DATE":"2020-04-22","OBJECT_ID":"2020-025Y","RCS_SIZE":"LARGE","MEAN_MOTION":"15.06398590","OBJECT_TYPE":"PAYLOAD","GP_ID":"220485450","TLE_LINE2":"2 45553  53.0569 345.7301 0001792  58.6040 301.5124 15.06398590146167","REF_FRAME":"TEME","NORAD_CAT_ID":"45553","CENTER_NAME":"EARTH","COUNTRY_CODE":"US","BSTAR":"0.00011989000000","OBJECT_NAME":"STARLINK-1323","EPOCH":"2022-12-15T06:28:46.830144","SEMIMAJOR_AXIS":"6925.353","ELEMENT_SET_NO":"999","FILE":"3702025","MEAN_MOTION_DOT":"0.00001505","APOAPSIS":"548.459","DECAY_DATE":null,"REV_AT_EPOCH":"14616","ARG_OF_PERICENTER":"58.6040","EPHEMERIS_TYPE":"0"},{"GP_ID":"220525056","TLE_LINE2":"2 45554  53.0569 343.6792 0001941  45.9428 314.1721 15.06398528147529","OBJECT_TYPE":"PAYLOAD","NORAD_CAT_ID":"45554","REF_FRAME":"TEME","CENTER_NAME":"EARTH","COUNTRY_CODE":"US","EPOCH":"2022-12-15T17:25:34.325472","OBJECT_NAME":"STARLINK-1325","BSTAR":"0.00013442000000","ELEMENT_SET_NO":"999","SEMIMAJOR_AXIS":"6925.353","APOAPSIS":"548.562","DECAY_DATE":null,"MEAN_MOTION_DOT":"0.00001721","FILE":"3702726","EPHEMERIS_TYPE":"0","ARG_OF_PERICENTER":"45.9428","REV_AT_EPOCH":"14752","MEAN_ELEMENT_THEORY":"SGP4","PERIAPSIS":"545.874","INCLINATION":"53.0569","SITE":"AFETR","MEAN_MOTION_DDOT":"0.0000000000000","RA_OF_ASC_NODE":"343.6792","PERIOD":"95.592","TIME_SYSTEM":"UTC","CLASSIFICATION_TYPE":"U","MEAN_ANOMALY":"314.1721","OBJECT_ID":"2020-025Z","ECCENTRICITY":"0.00019410","TLE_LINE1":"1 45554U 20025Z   22349.72609173  .00001721  00000-0  13442-3 0  9995","LAUNCH_DATE":"2020-04-22","RCS_SIZE":"LARGE","MEAN_MOTION":"15.06398528"},{"SITE":"AFETR","MEAN_MOTION_DDOT":"0.0000000000000","RA_OF_ASC_NODE":"343.8538","PERIOD":"95.592","MEAN_ELEMENT_THEORY":"SGP4","PERIAPSIS":"546.131","INCLINATION":"53.0531","OBJECT_ID":"2020-025AA","LAUNCH_DATE":"2020-04-22","TLE_LINE1":"1 45555U 20025AA  22349.69018768 -.00000675  00000-0 -26434-4 0  9991","ECCENTRICITY":"0.00015710","RCS_SIZE":"LARGE","MEAN_MOTION":"15.06398216","TIME_SYSTEM":"UTC","CLASSIFICATION_TYPE":"U","MEAN_ANOMALY":"279.1669","NORAD_CAT_ID":"45555","REF_FRAME":"TEME","CENTER_NAME":"EARTH","COUNTRY_CODE":"US","TLE_LINE2":"2 45555  53.0531 343.8538 0001571  80.9497 279.1669 15.06398216147517","GP_ID":"220525307","OBJECT_TYPE":"PAYLOAD","DECAY_DATE":null,"APOAPSIS":"548.307","MEAN_MOTION_DOT":"-0.00000675","FILE":"3702726","ARG_OF_PERICENTER":"80.9497","EPHEMERIS_TYPE":"0","REV_AT_EPOCH":"14751","EPOCH":"2022-12-15T16:33:52.215552","OBJECT_NAME":"STARLINK-1327","BSTAR":"-0.00002643400000","ELEMENT_SET_NO":"999","SEMIMAJOR_AXIS":"6925.354"},{"EPOCH":"2022-12-15T06:23:28.135968","OBJECT_NAME":"STARLINK-1334","BSTAR":"0.00007106900000","ELEMENT_SET_NO":"999","SEMIMAJOR_AXIS":"6925.366","APOAPSIS":"548.420","DECAY_DATE":null,"FILE":"3702025","MEAN_MOTION_DOT":"0.00000777","EPHEMERIS_TYPE":"0","ARG_OF_PERICENTER":"60.2257","REV_AT_EPOCH":"14745","GP_ID":"220484200","TLE_LINE2":"2 45556  53.0556 345.7431 0001717  60.2257 299.8902 15.06394469147453","OBJECT_TYPE":"PAYLOAD","NORAD_CAT_ID":"45556","REF_FRAME":"TEME","COUNTRY_CODE":"US","CENTER_NAME":"EARTH","TIME_SYSTEM":"UTC","CLASSIFICATION_TYPE":"U","MEAN_ANOMALY":"299.8902","OBJECT_ID":"2020-025AB","TLE_LINE1":"1 45556U 20025AB  22349.26629787  .00000777  00000-0  71069-4 0  9999","LAUNCH_DATE":"2020-04-22","ECCENTRICITY":"0.00017170","RCS_SIZE":"LARGE","MEAN_MOTION":"15.06394469","PERIAPSIS":"546.041","MEAN_ELEMENT_THEORY":"SGP4","INCLINATION":"53.0556","MEAN_MOTION_DDOT":"0.0000000000000","SITE":"AFETR","RA_OF_ASC_NODE":"345.7431","PERIOD":"95.592"},{"EPHEMERIS_TYPE":"0","ARG_OF_PERICENTER":"63.7142","REV_AT_EPOCH":"14753","DECAY_DATE":null,"APOAPSIS":"548.257","FILE":"3702726","MEAN_MOTION_DOT":"0.00002387","ELEMENT_SET_NO":"999","SEMIMAJOR_AXIS":"6925.334","EPOCH":"2022-12-15T19:18:23.989248","OBJECT_NAME":"STARLINK-1336","BSTAR":"0.00017904000000","CENTER_NAME":"EARTH","COUNTRY_CODE":"US","NORAD_CAT_ID":"45557","REF_FRAME":"TEME","TLE_LINE2":"2 45557  53.0534 343.3291 0001527  63.7142 296.4004 15.06404675147534","GP_ID":"220524308","OBJECT_TYPE":"PAYLOAD","RCS_SIZE":"LARGE","MEAN_MOTION":"15.06404675","OBJECT_ID":"2020-025AC","TLE_LINE1":"1 45557U 20025AC  22349.80444432  .00002387  00000-0  17904-3 0  9998","ECCENTRICITY":"0.00015270","LAUNCH_DATE":"2020-04-22","CLASSIFICATION_TYPE":"U","MEAN_ANOMALY":"296.4004","TIME_SYSTEM":"UTC","PERIOD":"95.592","RA_OF_ASC_NODE":"343.3291","SITE":"AFETR","MEAN_MOTION_DDOT":"0.0000000000000","PERIAPSIS":"546.142","MEAN_ELEMENT_THEORY":"SGP4","INCLINATION":"53.0534"},{"CLASSIFICATION_TYPE":"U","MEAN_ANOMALY":"308.8126","TIME_SYSTEM":"UTC","RCS_SIZE":"LARGE","MEAN_MOTION":"15.06396118","OBJECT_ID":"2020-025AD","TLE_LINE1":"1 45558U 20025AD  22349.70493054  .00000622  00000-0  60668-4 0  9998","ECCENTRICITY":"0.00019270","LAUNCH_DATE":"2020-04-22","MEAN_ELEMENT_THEORY":"SGP4","PERIAPSIS":"545.891","INCLINATION":"53.0547","RA_OF_ASC_NODE":"343.7820","PERIOD":"95.592","MEAN_MOTION_DDOT":"0.0000000000000","SITE":"AFETR","SEMIMAJOR_AXIS":"6925.360","ELEMENT_SET_NO":"999","EPOCH":"2022-12-15T16:55:05.998656","BSTAR":"0.00006066800000","OBJECT_NAME":"STARLINK-1342","REV_AT_EPOCH":"14751","EPHEMERIS_TYPE":"0","ARG_OF_PERICENTER":"51.3035","DECAY_DATE":null,"APOAPSIS":"548.560","MEAN_MOTION_DOT":"0.00000622","FILE":"3702726","GP_ID":"220524558","TLE_LINE2":"2 45558  53.0547 343.7820 0001927  51.3035 308.8126 15.06396118147512","OBJECT_TYPE":"PAYLOAD","CENTER_NAME":"EARTH","COUNTRY_CODE":"US","NORAD_CAT_ID":"45558","REF_FRAME":"TEME"},{"OBJECT_ID":"2020-025AE","TLE_LINE1":"1 45559U 20025AE  22349.40541441 -.00000658  00000-0 -25265-4 0  9995","LAUNCH_DATE":"2020-04-22","ECCENTRICITY":"0.00019800","MEAN_MOTION":"15.06403799","RCS_SIZE":"LARGE","TIME_SYSTEM":"UTC","CLASSIFICATION_TYPE":"U","MEAN_ANOMALY":"303.2036","SITE":"AFETR","MEAN_MOTION_DDOT":"0.0000000000000","PERIOD":"95.592","RA_OF_ASC_NODE":"345.0644","MEAN_ELEMENT_THEORY":"SGP4","PERIAPSIS":"545.831","INCLINATION":"53.0563","APOAPSIS":"548.573","DECAY_DATE":null,"MEAN_MOTION_DOT":"-0.00000658","FILE":"3702025","ARG_OF_PERICENTER":"56.9143","EPHEMERIS_TYPE":"0","REV_AT_EPOCH":"14747","EPOCH":"2022-12-15T09:43:47.805024","OBJECT_NAME":"STARLINK-1344","BSTAR":"-0.00002526500000","ELEMENT_SET_NO":"999","SEMIMAJOR_AXIS":"6925.337","NORAD_CAT_ID":"45559","REF_FRAME":"TEME","CENTER_NAME":"EARTH","COUNTRY_CODE":"US","TLE_LINE2":"2 45559  53.0563 345.0644 0001980  56.9143 303.2036 15.06403799147478","GP_ID":"220484450","OBJECT_TYPE":"PAYLOAD"},{"CENTER_NAME":"EARTH","COUNTRY_CODE":"US","NORAD_CAT_ID":"45560","REF_FRAME":"TEME","TLE_LINE2":"2 45560  53.0549 333.9767 0001422  67.6556 292.4583 15.06396839147656","GP_ID":"220526058","OBJECT_TYPE":"PAYLOAD","ARG_OF_PERICENTER":"67.6556","EPHEMERIS_TYPE":"0","REV_AT_EPOCH":"14765","APOAPSIS":"548.208","DECAY_DATE":null,"FILE":"3702726","MEAN_MOTION_DOT":"0.00000642","ELEMENT_SET_NO":"999","SEMIMAJOR_AXIS":"6925.358","EPOCH":"2022-12-15T15:51:21.773952","OBJECT_NAME":"STARLINK-1346","BSTAR":"0.00006202500000","PERIOD":"95.592","RA_OF_ASC_NODE":"333.9767","SITE":"AFETR","MEAN_MOTION_DDOT":"0.0000000000000","PERIAPSIS":"546.238","MEAN_ELEMENT_THEORY":"SGP4","INCLINATION":"53.0549","MEAN_MOTION":"15.06396839","RCS_SIZE":"LARGE","OBJECT_ID":"2020-025AF","ECCENTRICITY":"0.00014220","TLE_LINE1":"1 45560U 20025AF  22349.66066868  .00000642  00000-0  62025-4 0  9996","LAUNCH_DATE":"2020-04-22","CLASSIFICATION_TYPE":"U","MEAN_ANOMALY":"292.4583","TIME_SYSTEM":"UTC"},{"CENTER_NAME":"EARTH","COUNTRY_CODE":"US","REF_FRAME":"TEME","NORAD_CAT_ID":"45561","OBJECT_TYPE":"PAYLOAD","GP_ID":"220524808","TLE_LINE2":"2 45561  53.0631 238.6370 0006290 105.4273 254.7418 15.23040278149017","REV_AT_EPOCH":"14901","EPHEMERIS_TYPE":"0","ARG_OF_PERICENTER":"105.4273","FILE":"3702726","MEAN_MOTION_DOT":"0.00043340","DECAY_DATE":null,"APOAPSIS":"501.003","SEMIMAJOR_AXIS":"6874.813","ELEMENT_SET_NO":"999","BSTAR":"0.00181990000000","OBJECT_NAME":"STARLINK-1348","EPOCH":"2022-12-15T20:08:19.872096","PERIOD":"94.548","RA_OF_ASC_NODE":"238.6370","SITE":"AFETR","MEAN_MOTION_DDOT":"0.0000000000000","INCLINATION":"53.0631","MEAN_ELEMENT_THEORY":"SGP4","PERIAPSIS":"492.354","RCS_SIZE":"LARGE","MEAN_MOTION":"15.23040278","TLE_LINE1":"1 45561U 20025AG  22349.83911889  .00043340  00000-0  18199-2 0  9991","LAUNCH_DATE":"2020-04-22","ECCENTRICITY":"0.00062900","OBJECT_ID":"2020-025AG","MEAN_ANOMALY":"254.7418","CLASSIFICATION_TYPE":"U","TIME_SYSTEM":"UTC"},{"MEAN_ELEMENT_THEORY":"SGP4","PERIAPSIS":"546.030","INCLINATION":"53.0562","PERIOD":"95.593","RA_OF_ASC_NODE":"343.8662","MEAN_MOTION_DDOT":"0.0000000000000","SITE":"AFETR","CLASSIFICATION_TYPE":"U","MEAN_ANOMALY":"303.7975","TIME_SYSTEM":"UTC","MEAN_MOTION":"15.06391990","RCS_SIZE":"LARGE","OBJECT_ID":"2020-025AH","LAUNCH_DATE":"2020-04-22","TLE_LINE1":"1 45562U 20025AH  22349.68281320 -.00000068  00000-0  14329-4 0  9999","ECCENTRICITY":"0.00017440","TLE_LINE2":"2 45562  53.0562 343.8662 0001744  56.3181 303.7975 15.06391990147512","GP_ID":"220525057","OBJECT_TYPE":"PAYLOAD","CENTER_NAME":"EARTH","COUNTRY_CODE":"US","NORAD_CAT_ID":"45562","REF_FRAME":"TEME","SEMIMAJOR_AXIS":"6925.373","ELEMENT_SET_NO":"999","EPOCH":"2022-12-15T16:23:15.060480","BSTAR":"0.00001432900000","OBJECT_NAME":"STARLINK-1354","REV_AT_EPOCH":"14751","EPHEMERIS_TYPE":"0","ARG_OF_PERICENTER":"56.3181","DECAY_DATE":null,"APOAPSIS":"548.446","FILE":"3702726","MEAN_MOTION_DOT":"-0.00000068"}];
